NORAD_CAT_ID,OBJECT_NAME,OBJECT_TYPE,EPOCH,MEAN_MOTION,ECCENTRICITY,INCLINATION,RA_OF_ASC_NODE,ARG_OF_PERICENTER,MEAN_ANOMALY,BSTAR,MEAN_MOTION_DOT,MEAN_MOTION_DDOT,TLE_LINE0,TLE_LINE1,TLE_LINE2,SEMIMAJOR_AXIS,PERIOD,APOGEE,PERIGEE,DECAYED
53737.0,STARLINK-4646,PAYLOAD,2024-06-06 00:14:08,15.08850375,0.00013,53.2186,264.588,82.7044,277.4096,0.00019516,2.82e-05,0.0,0 STARLINK-4646,1 53737U 22107AP  24158.00982468  .00002820  00000-0  19516-3 0  9991,2 53737  53.2186 264.5880 0001300  82.7044 277.4096 15.08850375 96949,6917.849,95.437,540.613,538.814,0.0
53737.0,STARLINK-4646,PAYLOAD,2024-06-06 11:21:51,15.08829097,0.0001467,53.2192,262.5042,80.0373,280.0785,-0.00016597,-2.928e-05,0.0,0 STARLINK-4646,1 53737U 22107AP  24158.47351420 -.00002928  00000-0 -16597-3 0  9997,2 53737  53.2192 262.5042 0001467  80.0373 280.0785 15.08829097 97015,6917.914,95.438,540.794,538.764,0.0
53737.0,STARLINK-4646,PAYLOAD,2024-06-07 15:58:48,15.08842072,0.0001615,53.2153,257.1525,94.7115,265.4062,0.00024362,3.592e-05,0.0,0 STARLINK-4646,1 53737U 22107AP  24159.66583702  .00003592  00000-0  24362-3 0  9994,2 53737  53.2153 257.1525 0001615  94.7115 265.4062 15.08842072 97191,6917.874,95.437,540.856,538.622,0.0
53737.0,STARLINK-4646,PAYLOAD,2024-06-08 12:38:48,15.08863873,0.0001775,53.2145,253.2843,103.7264,256.3926,0.00079138,0.00012337,0.0,0 STARLINK-4646,1 53737U 22107AP  24160.52695109  .00012337  00000-0  79138-3 0  9994,2 53737  53.2145 253.2843 0001775 103.7264 256.3926 15.08863873 98107,6917.807,95.436,540.9,538.445,0.0
53737.0,STARLINK-4646,PAYLOAD,2024-06-08 17:24:57,15.08875834,0.0001482,53.2186,252.3939,99.2732,260.8428,0.00099708,0.00015632,0.0,0 STARLINK-4646,1 53737U 22107AP  24160.72566569  .00015632  00000-0  99708-3 0  9999,2 53737  53.2186 252.3939 0001482  99.2732 260.8428 15.08875834 97355,6917.771,95.435,540.661,538.611,0.0
53737.0,STARLINK-4646,PAYLOAD,2024-06-08 23:46:30,15.08834598,0.0001987,53.2142,251.2026,113.1418,246.9783,-0.00024798,-4.232e-05,0.0,0 STARLINK-4646,1 53737U 22107AP  24160.99063569 -.00004232  00000-0 -24798-3 0  9993,2 53737  53.2142 251.2026 0001987 113.1418 246.9783 15.08834598 97394,6917.897,95.438,541.136,538.387,0.0
53737.0,STARLINK-4646,PAYLOAD,2024-06-09 10:54:13,15.08830773,0.0001989,53.2141,249.1204,120.8754,239.2434,-0.00012298,-2.244e-05,0.0,0 STARLINK-4646,1 53737U 22107AP  24161.45431715 -.00002244  00000-0 -12298-3 0  9990,2 53737  53.2141 249.1204 0001989 120.8754 239.2434 15.08830773 98241,6917.909,95.438,541.15,538.398,0.0
53737.0,STARLINK-4646,PAYLOAD,2024-06-09 15:40:22,15.08823199,0.0001752,53.2154,248.2298,119.422,240.6948,-5.8639e-05,-1.221e-05,0.0,0 STARLINK-4646,1 53737U 22107AP  24161.65304146 -.00001221  00000-0 -58639-4 0  9993,2 53737  53.2154 248.2298 0001752 119.4220 240.6948 15.08823199 98271,6917.932,95.439,541.009,538.585,0.0
53737.0,STARLINK-4646,PAYLOAD,2024-06-10 12:20:23,15.08860863,0.0001314,53.2163,244.3679,97.6155,262.4986,0.0014222,0.00022432,0.0,0 STARLINK-4646,1 53737U 22107AP  24162.51416161  .00022432  00000-0  14222-2 0  9993,2 53737  53.2163 244.3679 0001314  97.6155 262.4986 15.08860863 97620,6917.817,95.436,540.591,538.773,0.0
53737.0,STARLINK-4646,PAYLOAD,2024-06-10 21:52:42,15.08864265,0.0001034,53.2161,242.5845,94.0345,266.0766,0.0014549,0.00022958,0.0,0 STARLINK-4646,1 53737U 22107AP  24162.91159866  .00022958  00000-0  14549-2 0  9998,2 53737  53.2161 242.5845 0001034  94.0345 266.0766 15.08864265 98463,6917.806,95.436,540.387,538.956,0.0
53737.0,STARLINK-4646,PAYLOAD,2024-06-11 05:49:38,15.08850021,0.0002216,53.2175,241.1004,106.5632,253.5603,0.0010701,0.00016788,0.0,0 STARLINK-4646,1 53737U 22107AP  24163.24280165  .00016788  00000-0  10701-2 0  9992,2 53737  53.2175 241.1004 0002216 106.5632 253.5603 15.08850021 97736,6917.85,95.437,541.248,538.182,0.0
53737.0,STARLINK-4646,PAYLOAD,2024-06-11 12:11:10,15.08852439,0.0001187,53.2159,239.9082,88.7859,271.3269,0.00063474,9.832e-05,0.0,0 STARLINK-4646,1 53737U 22107AP  24163.50775940  .00009832  00000-0  63474-3 0  9999,2 53737  53.2159 239.9082 0001187  88.7859 271.3269 15.08852439 98559,6917.842,95.437,540.529,538.886,0.0
53737.0,STARLINK-4646,PAYLOAD,2024-06-12 05:40:25,15.08837721,0.0001084,53.2158,236.6374,82.8026,277.309,0.00060052,9.282e-05,0.0,0 STARLINK-4646,1 53737U 22107AP  24164.23640587  .00009282  00000-0  60052-3 0  9996,2 53737  53.2158 236.6374 0001084  82.8026 277.3090 15.08837721 97883,6917.887,95.438,540.502,539.002,0.0
53737.0,STARLINK-4646,PAYLOAD,2024-06-12 12:01:58,15.08833645,0.0001303,53.2166,235.4508,100.66,259.4539,-3.9891e-05,-9.23e-06,0.0,0 STARLINK-4646,1 53737U 22107AP  24164.50136623 -.00000923  00000-0 -39891-4 0  9990,2 53737  53.2166 235.4508 0001303 100.6600 259.4539 15.08833645 97924,6917.9,95.438,540.666,538.863,0.0
53737.0,STARLINK-4646,PAYLOAD,2024-06-13 11:52:44,15.08843964,0.0001206,53.2161,230.9889,93.1289,266.9841,0.00017388,2.481e-05,0.0,0 STARLINK-4646,1 53737U 22107AP  24165.49496436  .00002481  00000-0  17388-3 0  9995,2 53737  53.2161 230.9889 0001206  93.1289 266.9841 15.08843964 98073,6917.868,95.437,540.568,538.899,0.0
53737.0,STARLINK-4646,PAYLOAD,2024-06-14 11:43:32,15.0883963,0.0001204,53.2163,226.5269,91.9349,268.1781,8.6288e-05,1.086e-05,0.0,0 STARLINK-4646,1 53737U 22107AP  24166.48856820  .00001086  00000-0  86288-4 0  9998,2 53737  53.2163 226.5269 0001204  91.9349 268.1781 15.08839630 99005,6917.882,95.438,540.579,538.914,0.0
53737.0,STARLINK-4646,PAYLOAD,2024-06-14 21:15:50,15.08842941,0.0001218,53.2164,224.74,87.6905,272.4226,4.5969e-05,4.44e-06,0.0,0 STARLINK-4646,1 53737U 22107AP  24166.88600654  .00000444  00000-0  45969-4 0  9992,2 53737  53.2164 224.7400 0001218  87.6905 272.4226 15.08842941 99065,6917.871,95.437,540.579,538.894,0.0
53737.0,STARLINK-4646,PAYLOAD,2024-06-15 09:58:55,15.08848085,0.0001161,53.2165,222.3616,93.8359,266.2766,0.00010242,1.343e-05,0.0,0 STARLINK-4646,1 53737U 22107AP  24167.41592368  .00001343  00000-0  10242-3 0  9998,2 53737  53.2165 222.3616 0001161  93.8359 266.2766 15.08848085 99142,6917.856,95.437,540.524,538.918,0.0
53737.0,STARLINK-4646,PAYLOAD,2024-06-15 21:06:37,15.08846253,0.0001135,53.2165,220.2801,93.0012,267.111,0.00010268,1.347e-05,0.0,0 STARLINK-4646,1 53737U 22107AP  24167.87960335  .00001347  00000-0  10268-3 0  9993,2 53737  53.2165 220.2801 0001135  93.0012 267.1110 15.08846253 99210,6917.861,95.437,540.511,538.941,0.0
53737.0,STARLINK-4646,PAYLOAD,2024-06-16 09:49:43,15.0884184,0.0001183,53.2167,217.9012,94.709,265.4037,0.00010355,1.361e-05,0.0,0 STARLINK-4646,1 53737U 22107AP  24168.40952594  .00001361  00000-0  10355-3 0  9994,2 53737  53.2167 217.9012 0001183  94.7090 265.4037 15.08841840 99290,6917.875,95.437,540.558,538.921,0.0
53737.0,STARLINK-4646,PAYLOAD,2024-06-17 12:51:16,15.08838916,0.0001279,53.2164,212.8461,96.4365,263.6772,1.1418e-05,-1.06e-06,0.0,0 STARLINK-4646,1 53737U 22107AP  24169.53560860 -.00000106  00000-0  11418-4 0  9999,2 53737  53.2164 212.8461 0001279  96.4365 263.6772 15.08838916 99464,6917.884,95.438,540.633,538.864,0.0
53737.0,STARLINK-4646,PAYLOAD,2024-06-18 09:31:17,15.08839594,0.0001212,53.2162,208.9814,92.3035,267.8096,5.3392e-05,5.62e-06,0.0,0 STARLINK-4646,1 53737U 22107AP  24170.39672791  .00000562  00000-0  53392-4 0  9994,2 53737  53.2162 208.9814 0001212  92.3035 267.8096 15.08839594 99598,6917.882,95.438,540.585,538.908,0.0
53737.0,STARLINK-4646,PAYLOAD,2024-06-18 19:03:36,15.08838408,0.0001174,53.2157,207.1972,90.4025,269.7102,5.3207e-05,5.59e-06,0.0,0 STARLINK-4646,1 53737U 22107AP  24170.79416879  .00000559  00000-0  53207-4 0  9992,2 53737  53.2157 207.1972 0001174  90.4025 269.7102 15.08838408 98875,6917.885,95.438,540.562,538.938,0.0
53737.0,STARLINK-4646,PAYLOAD,2024-06-19 09:22:04,15.08834435,0.0001215,53.2162,204.5218,91.9687,268.1444,2.7586e-05,1.51e-06,0.0,0 STARLINK-4646,1 53737U 22107AP  24171.39033375  .00000151  00000-0  27586-4 0  9994,2 53737  53.2162 204.5218 0001215  91.9687 268.1444 15.08834435 99746,6917.897,95.438,540.603,538.922,0.0
53737.0,STARLINK-4646,PAYLOAD,2024-06-20 12:23:37,15.08840877,0.0001281,53.2169,199.4667,89.5301,270.5838,6.1059e-05,6.84e-06,0.0,0 STARLINK-4646,1 53737U 22107AP  24172.51641073  .00000684  00000-0  61059-4 0  9993,2 53737  53.2169 199.4667 0001281  89.5301 270.5838 15.08840877 99912,6917.878,95.437,540.629,538.857,0.0
53737.0,STARLINK-4646,PAYLOAD,2024-06-20 18:45:10,15.0883879,0.0001278,53.2167,198.2769,88.6343,271.4796,3.5772e-05,2.81e-06,0.0,0 STARLINK-4646,1 53737U 22107AP  24172.78137287  .00000281  00000-0  35772-4 0  9995,2 53737  53.2167 198.2769 0001278  88.6343 271.4796 15.08838790 99174,6917.884,95.438,540.633,538.865,0.0
53737.0,STARLINK-4646,PAYLOAD,2024-06-21 09:03:38,15.08839174,0.0001249,53.2165,195.5998,85.5555,274.558,5.3016e-05,5.56e-06,0.0,0 STARLINK-4646,1 53737U 22107AP  24173.37753279  .00000556  00000-0  53016-4 0  9992,2 53737  53.2165 195.5998 0001249  85.5555 274.5580 15.08839174100046,6917.883,95.438,540.612,538.884,0.0
53737.0,STARLINK-4646,PAYLOAD,2024-06-22 08:54:26,15.08836871,0.0001306,53.2168,191.1389,84.7516,275.3625,1.1251e-05,-1.09e-06,0.0,0 STARLINK-4646,1 53737U 22107AP  24174.37113729 -.00000109  00000-0  11251-4 0  9993,2 53737  53.2168 191.1389 0001306  84.7516 275.3625 15.08836871 99415,6917.89,95.438,540.658,538.851,0.0
53737.0,STARLINK-4646,PAYLOAD,2024-06-23 07:09:50,15.08830394,0.0001514,53.217,186.9775,72.5641,287.5517,-1.3227e-05,-4.98e-06,0.0,0 STARLINK-4646,1 53737U 22107AP  24175.29850682 -.00000498  00000-0 -13227-4 0  9998,2 53737  53.2170 186.9775 0001514  72.5641 287.5517 15.08830394 99558,6917.91,95.438,540.822,538.727,0.0
53737.0,STARLINK-4646,PAYLOAD,2024-06-24 07:00:37,15.08833376,0.0001353,53.2166,182.516,87.0165,273.0982,6.1852e-05,6.96e-06,0.0,0 STARLINK-4646,1 53737U 22107AP  24176.29210582  .00000696  00000-0  61852-4 0  9993,2 53737  53.2166 182.5160 0001353  87.0165 273.0982 15.08833376 99702,6917.901,95.438,540.702,538.83,0.0
